0 FENGYUN 1C DEB
1 31948U 99025CMZ 13281.27917262  .00001928  00000-0  11568-2 0  5956
2 31948 099.3827 035.8452 0034357 223.8892 169.0196 14.07953467326131
0 FENGYUN 1C DEB
1 31948U 99025CMZ 13284.26334862  .00001975  00000-0  11839-2 0  5961
2 31948 099.3831 038.9452 0034501 216.0341 174.3860 14.07972349326557
0 FENGYUN 1C DEB
1 31948U 99025CMZ 13289.18410020  .00001977  00000-0  11841-2 0  5974
2 31948 099.3835 044.0577 0034675 203.0386 275.7380 14.07995600327249
0 FENGYUN 1C DEB
1 31948U 99025CMZ 13292.29324442  .00002520  00000-0  15016-2 0  5986
2 31948 099.3835 047.2879 0034765 194.7885 195.0348 14.08006802327683
0 FENGYUN 1C DEB
1 31948U 99025CMZ 13294.80457204  .00003230  00000-0  19157-2 0  5998
2 31948 099.3832 049.8974 0034888 188.4175 323.9956 14.08018213328038
